NORAD_CAT_ID,OBJECT_NAME,OBJECT_TYPE,EPOCH,MEAN_MOTION,ECCENTRICITY,INCLINATION,RA_OF_ASC_NODE,ARG_OF_PERICENTER,MEAN_ANOMALY,BSTAR,MEAN_MOTION_DOT,MEAN_MOTION_DDOT,TLE_LINE0,TLE_LINE1,TLE_LINE2,SEMIMAJOR_AXIS,PERIOD,APOGEE,PERIGEE,DECAYED
53292.0,STARLINK-4159,PAYLOAD,2024-01-09 13:18:57,15.08843166,0.0001379,53.2168,131.3544,89.9869,270.1282,4.4429e-05,4.19e-06,0.0,0 STARLINK-4159,1 53292U 22086BC  24009.55482893  .00000419  00000-0  44429-4 0  9999,2 53292  53.2168 131.3544 0001379  89.9869 270.1282 15.08843166 81900,6917.871,95.437,540.69,538.782,0.0
53292.0,STARLINK-4159,PAYLOAD,2024-01-09 14:54:20,15.08843538,0.0001375,53.2169,131.0571,87.288,272.8269,4.8044e-05,4.77e-06,0.0,0 STARLINK-4159,1 53292U 22086BC  24009.62106860  .00000477  00000-0  48044-4 0  9995,2 53292  53.2169 131.0571 0001375  87.2880 272.8269 15.08843538 81758,6917.87,95.437,540.686,538.783,0.0
53292.0,STARLINK-4159,PAYLOAD,2024-01-10 11:34:21,15.08839811,0.0001313,53.2168,127.1922,86.9599,273.1544,5.1322e-06,-2.06e-06,0.0,0 STARLINK-4159,1 53292U 22086BC  24010.48219362 -.00000206  00000-0  51322-5 0  9998,2 53292  53.2168 127.1922 0001313  86.9599 273.1544 15.08839811 81881,6917.881,95.438,540.654,538.838,0.0
53292.0,STARLINK-4159,PAYLOAD,2024-01-11 13:00:31,15.08842355,0.0001429,53.2163,122.4356,84.6779,275.4376,2.8736e-05,1.69e-06,0.0,0 STARLINK-4159,1 53292U 22086BC  24011.54203255  .00000169  00000-0  28736-4 0  9999,2 53292  53.2163 122.4356 0001429  84.6779 275.4376 15.08842355 82200,6917.873,95.437,540.727,538.75,0.0
53292.0,STARLINK-4159,PAYLOAD,2024-01-11 16:11:17,15.08849095,0.0001506,53.2168,121.8399,83.7104,276.406,8.6595e-05,1.091e-05,0.0,0 STARLINK-4159,1 53292U 22086BC  24011.67450807  .00001091  00000-0  86595-4 0  9992,2 53292  53.2168 121.8399 0001506  83.7104 276.4060 15.08849095 82066,6917.853,95.437,540.759,538.676,0.0
53292.0,STARLINK-4159,PAYLOAD,2024-01-12 11:15:55,15.08857453,0.0001705,53.2176,118.2733,51.9497,308.1649,-0.00023424,-4.016e-05,0.0,0 STARLINK-4159,1 53292U 22086BC  24012.46939554 -.00004016  00000-0 -23424-3 0  9994,2 53292  53.2176 118.2733 0001705  51.9497 308.1649 15.08857453 82186,6917.827,95.436,540.872,538.513,0.0
53292.0,STARLINK-4159,PAYLOAD,2024-01-12 14:26:42,15.08840686,0.0001457,53.2165,117.6775,79.3177,280.7979,2.9661e-05,1.84e-06,0.0,0 STARLINK-4159,1 53292U 22086BC  24012.60187537  .00000184  00000-0  29661-4 0  9996,2 53292  53.2165 117.6775 0001457  79.3177 280.7979 15.08840686 82367,6917.878,95.438,540.751,538.735,0.0
53292.0,STARLINK-4159,PAYLOAD,2024-01-13 09:31:20,15.0883698,0.0001685,53.2167,114.1103,69.4608,290.6564,2.5363e-05,1.16e-06,0.0,0 STARLINK-4159,1 53292U 22086BC  24013.39676080  .00000116  00000-0  25363-4 0  9999,2 53292  53.2167 114.1103 0001685  69.4608 290.6564 15.08836980 82326,6917.89,95.438,540.92,538.589,0.0
53292.0,STARLINK-4159,PAYLOAD,2024-01-13 14:17:28,15.0884573,0.0001642,53.2165,113.2174,76.8758,283.2417,7.7959e-05,9.53e-06,0.0,0 STARLINK-4159,1 53292U 22086BC  24013.59547349  .00000953  00000-0  77959-4 0  9993,2 53292  53.2165 113.2174 0001642  76.8758 283.2417 15.08845730 82512,6917.863,95.437,540.864,538.592,0.0
53292.0,STARLINK-4159,PAYLOAD,2024-01-14 10:57:29,15.08841777,0.0001571,53.217,109.3519,70.5116,289.6046,6.9613e-05,8.2e-06,0.0,0 STARLINK-4159,1 53292U 22086BC  24014.45659675  .00000820  00000-0  69613-4 0  9996,2 53292  53.2170 109.3519 0001571  70.5116 289.6046 15.08841777 82488,6917.875,95.437,540.827,538.653,0.0
53292.0,STARLINK-4159,PAYLOAD,2024-01-14 12:32:52,15.08844585,0.0001591,53.2168,109.0538,76.0339,284.083,8.715e-05,1.099e-05,0.0,0 STARLINK-4159,1 53292U 22086BC  24014.52283449  .00001099  00000-0  87150-4 0  9991,2 53292  53.2168 109.0538 0001591  76.0339 284.0830 15.08844585 82652,6917.866,95.437,540.832,538.631,0.0
53292.0,STARLINK-4159,PAYLOAD,2024-01-15 12:23:39,15.08849812,0.0001521,53.217,104.5929,85.3284,274.7882,4.9194e-05,4.95e-06,0.0,0 STARLINK-4159,1 53292U 22086BC  24015.51643212  .00000495  00000-0  49194-4 0  9994,2 53292  53.2170 104.5929 0001521  85.3284 274.7882 15.08849812 82644,6917.85,95.437,540.768,538.663,0.0
53292.0,STARLINK-4159,PAYLOAD,2024-01-15 15:34:25,15.0885319,0.0001474,53.2171,103.997,96.3243,263.7917,6.8084e-05,7.96e-06,0.0,0 STARLINK-4159,1 53292U 22086BC  24015.64890789  .00000796  00000-0  68084-4 0  9994,2 53292  53.2171 103.9970 0001474  96.3243 263.7917 15.08853190 82829,6917.84,95.437,540.725,538.685,0.0
53292.0,STARLINK-4159,PAYLOAD,2024-01-16 12:14:27,15.08837812,0.0001618,53.2171,100.1341,89.9352,270.1825,-2.5512e-05,-6.94e-06,0.0,0 STARLINK-4159,1 53292U 22086BC  24016.51004365 -.00000694  00000-0 -25512-4 0  9996,2 53292  53.2171 100.1341 0001618  89.9352 270.1825 15.08837812 82798,6917.887,95.438,540.871,538.633,0.0
53292.0,STARLINK-4159,PAYLOAD,2024-01-17 12:05:14,15.08842347,0.0001526,53.2176,95.6697,108.9583,251.1575,-2.165e-05,-6.33e-06,0.0,0 STARLINK-4159,1 53292U 22086BC  24017.50364225 -.00000633  00000-0 -21650-4 0  9992,2 53292  53.2176  95.6697 0001526 108.9583 251.1575 15.08842347 83107,6917.873,95.437,540.794,538.683,0.0
53292.0,STARLINK-4159,PAYLOAD,2024-01-18 03:59:06,15.08830867,0.0001422,53.2168,92.6992,100.6054,259.5099,0.00011449,1.534e-05,0.0,0 STARLINK-4159,1 53292U 22086BC  24018.16604863  .00001534  00000-0  11449-3 0  9993,2 53292  53.2168  92.6992 0001422 100.6054 259.5099 15.08830867 83040,6917.908,95.438,540.757,538.79,0.0
53292.0,STARLINK-4159,PAYLOAD,2024-01-18 11:56:02,15.08804499,0.0001328,53.218,91.2085,114.3442,245.7689,0.00063831,9.876e-05,0.0,0 STARLINK-4159,1 53292U 22086BC  24018.49725318  .00009876  00000-0  63831-3 0  9997,2 53292  53.2180  91.2085 0001328 114.3442 245.7689 15.08804499 83099,6917.989,95.44,540.773,538.935,0.0
53292.0,STARLINK-4159,PAYLOAD,2024-01-19 11:46:48,15.08846444,0.0001549,53.2182,86.75,79.6323,280.4844,5.7025e-05,6.2e-06,0.0,0 STARLINK-4159,1 53292U 22086BC  24019.49084290  .00000620  00000-0  57025-4 0  9992,2 53292  53.2182  86.7500 0001549  79.6323 280.4844 15.08846444 83240,6917.861,95.437,540.797,538.654,0.0
53292.0,STARLINK-4159,PAYLOAD,2024-01-20 11:37:36,15.08839037,0.0002135,53.2178,82.2939,49.8117,310.3062,1.386e-05,-6.8e-07,0.0,0 STARLINK-4159,1 53292U 22086BC  24020.48445239 -.00000068  00000-0  13860-4 0  9993,2 53292  53.2178  82.2939 0002135  49.8117 310.3062 15.08839037 83395,6917.883,95.438,541.225,538.271,0.0
53292.0,STARLINK-4159,PAYLOAD,2024-01-20 13:12:58,15.08847578,0.0001518,53.2181,81.9927,95.1328,264.9838,2.387e-05,9.2e-07,0.0,0 STARLINK-4159,1 53292U 22086BC  24020.55068251  .00000092  00000-0  23870-4 0  9994,2 53292  53.2181  81.9927 0001518  95.1328 264.9838 15.08847578 83567,6917.857,95.437,540.772,538.672,0.0
53292.0,STARLINK-4159,PAYLOAD,2024-01-21 03:31:28,15.08835715,0.0002061,53.2181,79.3191,64.331,295.7894,1.4102e-05,-6.4e-07,0.0,0 STARLINK-4159,1 53292U 22086BC  24021.14685408 -.00000064  00000-0  14102-4 0  9997,2 53292  53.2181  79.3191 0002061  64.3310 295.7894 15.08835715 83490,6917.893,95.438,541.184,538.333,0.0
53292.0,STARLINK-4159,PAYLOAD,2024-01-21 11:28:23,15.08843768,0.0001578,53.2179,77.8331,82.8422,277.2749,-1.2372e-06,-3.08e-06,0.0,0 STARLINK-4159,1 53292U 22086BC  24021.47804786 -.00000308  00000-0 -12372-5 0  9995,2 53292  53.2179  77.8331 0001578  82.8422 277.2749 15.08843768 83544,6917.869,95.437,540.826,538.642,0.0
53292.0,STARLINK-4159,PAYLOAD,2024-01-21 22:36:05,15.08838932,0.0002084,53.217,75.7547,62.3664,297.7539,7.5066e-05,9.07e-06,0.0,0 STARLINK-4159,1 53292U 22086BC  24021.94173116  .00000907  00000-0  75066-4 0  9994,2 53292  53.2170  75.7547 0002084  62.3664 297.7539 15.08838932 83771,6917.884,95.438,541.19,538.307,0.0
53292.0,STARLINK-4159,PAYLOAD,2024-01-22 09:43:47,15.08839636,0.0001552,53.2168,73.6701,81.5514,278.5654,1.6719e-05,-2.2e-07,0.0,0 STARLINK-4159,1 53292U 22086BC  24022.40541239 -.00000022  00000-0  16719-4 0  9990,2 53292  53.2168  73.6701 0001552  81.5514 278.5654 15.08839636 83680,6917.882,95.438,540.82,538.673,0.0
53292.0,STARLINK-4159,PAYLOAD,2024-01-22 22:26:52,15.08846422,0.0001505,53.2168,71.2909,84.3814,275.735,-2.9972e-05,-7.65e-06,0.0,0 STARLINK-4159,1 53292U 22086BC  24022.93532660 -.00000765  00000-0 -29972-4 0  9996,2 53292  53.2168  71.2909 0001505  84.3814 275.7350 15.08846422 83768,6917.861,95.437,540.767,538.685,0.0
53292.0,STARLINK-4159,PAYLOAD,2024-01-23 06:23:47,15.08848602,0.000163,53.2167,69.8032,85.8557,274.2622,-1.7656e-05,-5.69e-06,0.0,0 STARLINK-4159,1 53292U 22086BC  24023.26652721 -.00000569  00000-0 -17656-4 0  9992,2 53292  53.2167  69.8032 0001630  85.8557 274.2622 15.08848602 83977,6917.854,95.437,540.847,538.591,0.0
53292.0,STARLINK-4159,PAYLOAD,2024-01-23 09:34:34,15.08844047,0.0001553,53.2168,69.2098,68.4034,291.7123,8.9055e-05,1.13e-05,0.0,0 STARLINK-4159,1 53292U 22086BC  24023.39900690  .00001130  00000-0  89055-4 0  9992,2 53292  53.2168  69.2098 0001553  68.4034 291.7123 15.08844047 83996,6917.868,95.437,540.807,538.659,0.0
53292.0,STARLINK-4159,PAYLOAD,2024-01-24 07:49:58,15.08833073,0.0001912,53.2191,65.0471,119.9017,240.2165,1.3054e-05,-8e-07,0.0,0 STARLINK-4159,1 53292U 22086BC  24024.32637470 -.00000080  00000-0  13054-4 0  9999,2 53292  53.2191  65.0471 0001912 119.9017 240.2165 15.08833073 83973,6917.902,95.438,541.089,538.444,0.0
53292.0,STARLINK-4159,PAYLOAD,2024-01-25 09:16:08,15.08841316,0.0001825,53.2185,60.29,116.4429,243.675,4.3805e-05,4.09e-06,0.0,0 STARLINK-4159,1 53292U 22086BC  24025.38621116  .00000409  00000-0  43805-4 0  9997,2 53292  53.2185  60.2900 0001825 116.4429 243.6750 15.08841316 84137,6917.876,95.437,541.004,538.479,0.0
53292.0,STARLINK-4159,PAYLOAD,2024-01-26 07:31:33,15.0883403,0.0002028,53.2186,56.1269,125.8825,234.2356,5.4324e-05,5.76e-06,0.0,0 STARLINK-4159,1 53292U 22086BC  24026.31357703  .00000576  00000-0  54324-4 0  9992,2 53292  53.2186  56.1269 0002028 125.8825 234.2356 15.08834030 84278,6917.899,95.438,541.167,538.361,0.0
